CUBESAT XI-V            
1 28895U 05043F   22298.61159046  .00000945  00000+0  18662-3 0  9992
2 28895  98.1249  68.1323 0017725  91.8823 268.4410 14.64593424906465
CUTE-1.7+APD II (CO-65) 
1 32785U 08021C   22298.79718849  .00002227  00000+0  23565-3 0  9998
2 32785  97.6745 265.6610 0013227 154.3469 205.8408 14.90095031785962
AAUSAT-II               
1 32788U 08021F   22298.69620893  .00004738  00000+0  39883-3 0  9990
2 32788  97.5465 279.5712 0012746  54.5456 305.6955 14.98634323787938
DELFI-C3 (DO-64)        
1 32789U 08021G   22298.65060583  .00010855  00000+0  55059-3 0  9991
2 32789  97.3303 320.4408 0008172 219.2448 140.8194 15.17077067791640
SEEDS II (CO-66)        
1 32791U 08021J   22298.19787123  .00003025  00000+0  29275-3 0  9991
2 32791  97.6271 270.4422 0014336 114.1831 246.0889 14.93402559786553
SWISSCUBE               
1 35932U 09051B   22298.58854964  .00000623  00000+0  14936-3 0  9995
2 35932  98.5498 158.0644 0007941  16.2013 343.9437 14.57030834695041
BEESAT-1                
1 35933U 09051C   22298.61165322  .00000541  00000+0  13114-3 0  9999
2 35933  98.5433 159.6232 0006386  30.1486 330.0077 14.57026486695126
ITUPSAT1                
1 35935U 09051E   22298.36555213  .00000489  00000+0  12193-3 0  9992
2 35935  98.5535 159.3917 0008730  31.7116 328.4605 14.56123195694783
TISAT 1                 
1 36799U 10035E   22298.65891742  .00002116  00000+0  20652-3 0  9995
2 36799  98.1647 154.1864 0012469  32.7052 327.4936 14.93525724667196
M-CUBED & EXP-1 PRIME   
1 37855U 11061F   22298.34395024  .00008065  00000+0  33525-3 0  9999
2 37855 101.7191 126.5761 0146067  32.3354 328.6713 15.15081335600886
AEROCUBE 4.5A           
1 38767U 12048K   22298.60311962  .00007094  00000+0  49006-3 0  9998
2 38767  64.6664  61.8618 0166065 226.9454 131.7657 14.95943326170241
AEROCUBE 4.5B           
1 38768U 12048L   22298.32333863  .00009015  00000+0  55869-3 0  9991
2 38768  64.6683  14.2002 0150331 222.5629 136.3759 15.01314957170634
STRAND-1                
1 39090U 13009E   22298.10134035  .00000183  00000+0  78814-4 0  9997
2 39090  98.3967 132.8279 0007978 242.4603 117.5773 14.35351000505990
BRITE-AUSTRIA           
1 39091U 13009F   22298.50652172  .00000135  00000+0  62146-4 0  9997
2 39091  98.3987 132.4112 0009358 248.8501 111.1685 14.35317405506080
SOMP                    
1 39134U 13015E   22298.42781052  .00016674  00000+0  52229-3 0  9998
2 39134  64.8611 354.2346 0033345 263.2810  96.4528 15.32694535526746
BEESAT-3                
1 39135U 13015F   22298.62610320  .00012741  00000+0  47809-3 0  9999
2 39135  64.8669  33.0314 0038322 264.9121  94.7635 15.26828279525960
BEESAT-2                
1 39136U 13015G   22298.56774657  .00011330  00000+0  44778-3 0  9992
2 39136  64.8753  42.2085 0024327 293.3944  66.4627 15.25594456525740
NEE-01 PEGASO           
1 39151U 13018B   22298.83362226  .00001431  00000+0  18999-3 0  9994
2 39151  97.9989  44.1219 0016537 188.5413 171.5520 14.81283713512978
ESTCUBE 1               
1 39161U 13021C   22298.84247811  .00001064  00000+0  17239-3 0  9990
2 39161  97.8981  12.6390 0009315  11.4067 348.7341 14.73212713508668
POPACS 1                
1 39268U 13055D   22298.19081512  .00027298  00000+0  67048-3 0  9997
2 39268  80.9911  99.5389 0554294 167.5222 194.0382 14.54801273473607
POPACS 2                
1 39269U 13055E   22298.58088520  .00009423  00000+0  25622-3 0  9999
2 39269  81.0110 160.0175 0636397 324.3796  31.6427 14.35419704468830
POPACS 3                
1 39270U 13055F   22298.43247712  .00006432  00000+0  19120-3 0  9998
2 39270  81.0166 195.4068 0684428  64.4066 302.6213 14.23235887447113
ZACUBE-1 (TSHEPISOSAT)  
1 39417U 13066B   22298.83127089  .00002240  00000+0  27546-3 0  9995
2 39417  97.6535 264.5826 0056584 338.8476  21.0398 14.82857516482443
WNISAT-1                
1 39423U 13066H   22298.60566808  .00000632  00000+0  13242-3 0  9994
2 39423  97.7316 170.3696 0175335  90.9925 271.1359 14.53621747473356
TRITON-1                
1 39427U 13066M   22298.83135877  .00001143  00000+0  18439-3 0  9992
2 39427  97.8197 229.0117 0110275 207.2091 152.3311 14.69368431477927
DELFI-N3XT              
1 39428U 13066N   22298.79103014  .00001960  00000+0  30441-3 0  9990
2 39428  97.8196 227.6119 0114732 220.4500 138.8136 14.69855163477676
GOMX-1                  
1 39430U 13066Q   22298.98346221  .00001941  00000+0  35116-3 0  9996
2 39430  97.7973 198.6658 0148719 353.8132   6.1228 14.60518604475348
CUBEBUG-2 (LO-74)       
1 39440U 13066AA  22298.85012644  .00001847  00000+0  25308-3 0  9999
2 39440  97.7418 251.0482 0079773  68.8345 292.1367 14.77428948479539
NEE-02 KRYSAOR          
1 39441U 13066AB  22298.83297448  .00001278  00000+0  18268-3 0  9990
2 39441  97.7528 248.1351 0081779  83.0903 277.9602 14.76043249479261
FUNCUBE-1 (AO-73)       
1 39444U 13066AE  22298.81671105  .00002609  00000+0  31113-3 0  9990
2 39444  97.6411 266.9969 0054924 326.1570  33.6144 14.84056671480857
UWE-3                   
1 39446U 13066AG  22298.84889481  .00002260  00000+0  29347-3 0  9992
2 39446  97.7026 257.4125 0068866  25.4741 334.9839 14.80030943479744
AEROCUBE 5A             
1 39465U 13072D   22298.65032385  .00040521  00000+0  17830-2 0  9997
2 39465 120.4829  82.2084 0174219  56.0155 305.7336 15.08946370169179
AEROCUBE 5B             
1 39466U 13072E   22298.62985046  .00177234  00000+0  26462-2 0  9999
2 39466 120.4473 189.4464 0096213  75.1469 286.0252 15.48836595170647
BRITE-CA1 (TORONTO)     
1 40020U 14033L   22298.41099803  .00000805  00000+0  14379-3 0  9993
2 40020  97.7956  90.8985 0085959 208.2947 151.3576 14.67213150446718
DUCHIFAT-1              
1 40021U 14033M   22298.87458529  .00003850  00000+0  36814-3 0  9999
2 40021  98.0267 251.5989 0011461 338.5304  21.5432 14.93807799454163
NANOSATC-BR1            
1 40024U 14033Q   22298.85151234  .00003149  00000+0  31224-3 0  9994
2 40024  97.9978 244.2313 0011205 346.1134  13.9775 14.92499094453422
QB50P1                  
1 40025U 14033R   22298.80816278  .00002242  00000+0  23160-3 0  9999
2 40025  97.9698 237.3158 0011894 356.6623   3.4513 14.91136184453189
QB50P2                  
1 40032U 14033Y   22298.81827679  .00002447  00000+0  25621-3 0  9996
2 40032  97.9445 232.1952 0011241 354.6513   5.4583 14.90515872453031
PERSEUS-M2              
1 40037U 14033AD  22298.42909400  .00001068  00000+0  12423-3 0  9995
2 40037  97.8961 219.9197 0014657  17.6434 342.5288 14.87351116452440
PERSEUS-M1              
1 40039U 14033AF  22298.32367777  .00001010  00000+0  11889-3 0  9993
2 40039  97.8848 217.3291 0014523  17.2287 342.9419 14.86952215452308
POLYITAN-1              
1 40042U 14033AJ  22298.81594788  .00002562  00000+0  26272-3 0  9990
2 40042  97.9809 238.7041 0013780 347.3283  12.7586 14.91298017453078
TIGRISAT                
1 40043U 14033AK  22298.26242374  .00001008  00000+0  15169-3 0  9998
2 40043  97.6564 120.5575 0060277  95.6919 265.1168 14.75295827448764
AEROCUBE 6A             
1 40045U 14033AM  22298.24523173  .00001171  00000+0  16978-3 0  9997
2 40045  97.6600 129.6954 0057804  82.8588 277.9191 14.76693904448935
AEROCUBE 6B             
1 40046U 14033AN  22298.45658880  .00001800  00000+0  25425-3 0  9991
2 40046  97.6517 128.3083 0056650  80.2365 280.5237 14.77242112448972
UKUBE-1                 
1 40074U 14037F   22298.88198761  .00002712  00000+0  31777-3 0  9990
2 40074  98.3621 186.2770 0003030 221.2907 138.8068 14.85917642449431
BRITE-PL2 (HEWELIUSZ)   
1 40119U 14049B   22298.83982256  .00001145  00000+0  13893-3 0  9996
2 40119  97.8847  33.1477 0017338 171.3078 188.8440 14.85408467443364
FIREBIRD 4              
1 40378U 15003C   22298.45456157  .00022329  00000+0  58460-3 0  9994
2 40378  99.0802 192.8909 0088480 303.7779  55.5054 15.34774706428321
GRIFEX                  
1 40379U 15003D   22298.62106399  .00012498  00000+0  41179-3 0  9999
2 40379  99.0907 177.4413 0109105 350.6143   9.3049 15.26025619427458
CP10 (EXOCUBE)          
1 40380U 15003E   22298.38082571  .00009661  00000+0  35376-3 0  9999
2 40380  99.1016 169.2779 0119390  17.7288 342.8054 15.21779445426902
TIANWANG 1A (TW-1A)     
1 40928U 15051D   22298.93348872  .00119651  00000+0  76960-3 0  9995
2 40928  97.0232 321.4689 0004191 237.7364 207.7667 15.75840424398654
EXACTVIEW 9             
1 40936U 15052G   22298.67844936  .00001742  00000+0  15073-3 0  9997
2 40936   6.0043 323.9695 0010591 204.4454 155.5171 14.77418357382503
AEROCUBE 5C             
1 40965U 15058B   22298.76136198  .00002375  00000+0  28508-3 0  9999
2 40965  64.7799  55.8453 0175634 157.0090 203.9002 14.76084694168196
AEROCUBE 7              
1 40966U 15058C   22298.57183584  .00003072  00000+0  35940-3 0  9993
2 40966  64.7799  53.2508 0173276 156.6895 204.2191 14.76755006168171
ATHENOXAT 1             
1 41168U 15077C   22298.85168875  .00021246  00000+0  79471-3 0  9996
2 41168  14.9832 201.6166 0009105 288.7317 128.9833 15.24847127380211
GALASSIA                
1 41170U 15077E   22297.01665481  .00016238  00000+0  63282-3 0  9999
2 41170  14.9874 207.5725 0010738 279.9203  79.9907 15.23121800379831
VELOX-II                
1 41171U 15077F   22298.60649781  .00008694  00000+0  38166-3 0  9991
2 41171  14.9913 276.2397 0007142 129.5662 230.5291 15.17842623379408
HORYU-4                 
1 41340U 16012D   22298.54703962  .00003721  00000+0  25507-3 0  9995
2 41340  31.0043 247.8464 0012412  55.7636 304.4175 15.04190127367327
E-ST@R-II               
1 41459U 16025D   22298.75165733  .00021419  00000+0  85886-3 0  9991
2 41459  98.1950 113.9214 0137242 186.0811 173.8758 15.16688893357225
AAUSAT 4                
1 41460U 16025E   22298.83318593  .00034294  00000+0  11480-2 0  9999
2 41460  98.1827 121.5488 0112394 157.2608 327.7231 15.24923024357765
